[{"OBJECT_NAME":"NOAA 20 (JPSS-1)","OBJECT_ID":"2017-073A","EPOCH":"2026-03-09T21:34:23.263968","MEAN_MOTION":14.19536148,"ECCENTRICITY":0.00012278,"INCLINATION":98.7691,"RA_OF_ASC_NODE":9.284,"ARG_OF_PERICENTER":138.0033,"MEAN_ANOMALY":222.1238,"EPHEMERIS_TYPE":0,"CLASSIFICATION_TYPE":"U","NORAD_CAT_ID":43013,"ELEMENT_SET_NO":999,"REV_AT_EPOCH":43038,"BSTAR":6.8959463e-5,"MEAN_MOTION_DOT":1.01e-6,"MEAN_MOTION_DDOT":0},{"OBJECT_NAME":"SL-18 DEB","OBJECT_ID":"1993-014V","EPOCH":"2026-03-09T00:53:17.812608","MEAN_MOTION":14.46703357,"ECCENTRICITY":0.01293409,"INCLINATION":75.7563,"RA_OF_ASC_NODE":207.9568,"ARG_OF_PERICENTER":299.2869,"MEAN_ANOMALY":59.5422,"EPHEMERIS_TYPE":0,"CLASSIFICATION_TYPE":"U","NORAD_CAT_ID":28292,"ELEMENT_SET_NO":999,"REV_AT_EPOCH":66951,"BSTAR":0.00069100481,"MEAN_MOTION_DOT":2.755e-5,"MEAN_MOTION_DDOT":0}]
